start=new Date('2022-03-09T00:00:00.000Z').valueOf();
sats=[{"EPHEMERIS_TYPE":"0","COUNTRY_CODE":"US","LAUNCH_DATE":"2020-08-18","EPOCH":"2022-03-08T12:14:53.476224","SEMIMAJOR_AXIS":"6925.403","ELEMENT_SET_NO":"999","OBJECT_ID":"2020-057AZ","REV_AT_EPOCH":"8690","PERIAPSIS":"546.189","APOAPSIS":"548.346","DECAY_DATE":null,"OBJECT_NAME":"STARLINK-1612","INCLINATION":"53.0558","FILE":"3350993","RA_OF_ASC_NODE":"0.5940","RCS_SIZE":"LARGE","TIME_SYSTEM":"UTC","REF_FRAME":"TEME","TLE_LINE1":"1 46164U 20057AZ  22067.51034116 -.00003356  00000-0 -20659-3 0  9997","OBJECT_TYPE":"PAYLOAD","SITE":"AFETR","NORAD_CAT_ID":"46164","MEAN_MOTION_DOT":"-0.00003356","TLE_LINE2":"2 46164  53.0558   0.5940 0001557  68.5118 291.6037 15.06382380 86901","CENTER_NAME":"EARTH","CLASSIFICATION_TYPE":"U","BSTAR":"-0.00020659000000","MEAN_MOTION_DDOT":"0.0000000000000","ARG_OF_PERICENTER":"68.5118","MEAN_ELEMENT_THEORY":"SGP4","MEAN_MOTION":"15.06382380","ECCENTRICITY":"0.00015570","GP_ID":"198243986","MEAN_ANOMALY":"291.6037","PERIOD":"95.593"},{"PERIOD":"95.468","MEAN_ANOMALY":"302.5113","GP_ID":"198237220","ECCENTRICITY":"0.00008770","MEAN_MOTION":"15.08366010","MEAN_ELEMENT_THEORY":"SGP4","ARG_OF_PERICENTER":"57.5962","MEAN_MOTION_DDOT":"0.0000000000000","CLASSIFICATION_TYPE":"U","BSTAR":"0.00108380000000","TLE_LINE2":"2 46165  53.0538  40.7829 0000877  57.5962 302.5113 15.08366010 85664","CENTER_NAME":"EARTH","MEAN_MOTION_DOT":"0.00016782","NORAD_CAT_ID":"46165","OBJECT_TYPE":"PAYLOAD","SITE":"AFETR","TLE_LINE1":"1 46165U 20057BA  22067.33079287  .00016782  00000-0  10838-2 0  9998","REF_FRAME":"TEME","RCS_SIZE":"LARGE","TIME_SYSTEM":"UTC","RA_OF_ASC_NODE":"40.7829","FILE":"3350976","INCLINATION":"53.0538","OBJECT_NAME":"STARLINK-1613","DECAY_DATE":null,"APOAPSIS":"541.801","REV_AT_EPOCH":"8566","PERIAPSIS":"540.588","OBJECT_ID":"2020-057BA","ELEMENT_SET_NO":"999","SEMIMAJOR_AXIS":"6919.330","EPOCH":"2022-03-08T07:56:20.503968","LAUNCH_DATE":"2020-08-18","COUNTRY_CODE":"US","EPHEMERIS_TYPE":"0"},{"PERIOD":"95.592","MEAN_ANOMALY":"298.2034","MEAN_ELEMENT_THEORY":"SGP4","ARG_OF_PERICENTER":"61.9092","ECCENTRICITY":"0.00013580","GP_ID":"198271417","MEAN_MOTION":"15.06394542","MEAN_MOTION_DDOT":"0.0000000000000","TLE_LINE2":"2 46166  53.0553  40.0618 0001358  61.9092 298.2034 15.06394542 85706","CENTER_NAME":"EARTH","NORAD_CAT_ID":"46166","MEAN_MOTION_DOT":"-0.00000218","CLASSIFICATION_TYPE":"U","BSTAR":"0.00000424780000","OBJECT_TYPE":"PAYLOAD","SITE":"AFETR","REF_FRAME":"TEME","TLE_LINE1":"1 46166U 20057BB  22067.62827399 -.00000218  00000-0  42478-5 0  9992","RCS_SIZE":"LARGE","TIME_SYSTEM":"UTC","RA_OF_ASC_NODE":"40.0618","FILE":"3351330","INCLINATION":"53.0553","OBJECT_NAME":"STARLINK-1615","DECAY_DATE":null,"APOAPSIS":"548.171","PERIAPSIS":"546.290","REV_AT_EPOCH":"8570","ELEMENT_SET_NO":"999","OBJECT_ID":"2020-057BB","LAUNCH_DATE":"2020-08-18","SEMIMAJOR_AXIS":"6925.365","EPOCH":"2022-03-08T15:04:42.872736","COUNTRY_CODE":"US","EPHEMERIS_TYPE":"0"},{"GP_ID":"198271668","ECCENTRICITY":"0.00018970","MEAN_MOTION":"15.06394902","MEAN_ELEMENT_THEORY":"SGP4","ARG_OF_PERICENTER":"54.8799","MEAN_ANOMALY":"305.2367","PERIOD":"95.592","BSTAR":"0.00008092600000","CLASSIFICATION_TYPE":"U","TLE_LINE2":"2 46167  53.0564  40.0134 0001897  54.8799 305.2367 15.06394902 85703","CENTER_NAME":"EARTH","MEAN_MOTION_DOT":"0.00000924","NORAD_CAT_ID":"46167","MEAN_MOTION_DDOT":"0.0000000000000","TLE_LINE1":"1 46167U 20057BC  22067.64302483  .00000924  00000-0  80926-4 0  9999","REF_FRAME":"TEME","OBJECT_TYPE":"PAYLOAD","SITE":"AFETR","FILE":"3351330","INCLINATION":"53.0564","TIME_SYSTEM":"UTC","RCS_SIZE":"LARGE","RA_OF_ASC_NODE":"40.0134","DECAY_DATE":null,"APOAPSIS":"548.543","OBJECT_NAME":"STARLINK-1626","REV_AT_EPOCH":"8570","PERIAPSIS":"545.915","SEMIMAJOR_AXIS":"6925.364","EPOCH":"2022-03-08T15:25:57.345312","LAUNCH_DATE":"2020-08-18","OBJECT_ID":"2020-057BC","ELEMENT_SET_NO":"999","EPHEMERIS_TYPE":"0","COUNTRY_CODE":"US"},{"EPHEMERIS_TYPE":"0","COUNTRY_CODE":"US","EPOCH":"2022-03-08T21:05:38.966208","SEMIMAJOR_AXIS":"6925.428","LAUNCH_DATE":"2020-08-18","OBJECT_ID":"2020-057BD","ELEMENT_SET_NO":"999","REV_AT_EPOCH":"8643","PERIAPSIS":"546.125","APOAPSIS":"548.461","DECAY_DATE":null,"OBJECT_NAME":"STARLINK-1627","INCLINATION":"53.0560","FILE":"3351330","RA_OF_ASC_NODE":"348.9373","TIME_SYSTEM":"UTC","RCS_SIZE":"LARGE","TLE_LINE1":"1 46168U 20057BD  22067.87892322 -.00001972  00000-0 -11361-3 0  9993","REF_FRAME":"TEME","SITE":"AFETR","OBJECT_TYPE":"PAYLOAD","BSTAR":"-0.00011361000000","CLASSIFICATION_TYPE":"U","NORAD_CAT_ID":"46168","MEAN_MOTION_DOT":"-0.00001972","CENTER_NAME":"EARTH","TLE_LINE2":"2 46168  53.0560 348.9373 0001686  62.7959 297.3202 15.06374074 86435","MEAN_MOTION_DDOT":"0.0000000000000","MEAN_MOTION":"15.06374074","GP_ID":"198271919","ECCENTRICITY":"0.00016860","ARG_OF_PERICENTER":"62.7959","MEAN_ELEMENT_THEORY":"SGP4","PERIOD":"95.594","MEAN_ANOMALY":"297.3202"},{"OBJECT_ID":"2020-057BE","ELEMENT_SET_NO":"999","EPOCH":"2022-03-08T08:10:43.699584","SEMIMAJOR_AXIS":"6927.861","LAUNCH_DATE":"2020-08-18","COUNTRY_CODE":"US","EPHEMERIS_TYPE":"0","OBJECT_NAME":"STARLINK-1628","APOAPSIS":"550.749","DECAY_DATE":null,"PERIAPSIS":"548.704","REV_AT_EPOCH":"8628","SITE":"AFETR","OBJECT_TYPE":"PAYLOAD","TLE_LINE1":"1 46169U 20057BE  22067.34078356 -.00001548  00000-0 -87110-4 0  9994","REF_FRAME":"TEME","RA_OF_ASC_NODE":"41.3424","TIME_SYSTEM":"UTC","RCS_SIZE":"LARGE","INCLINATION":"53.0004","FILE":"3350999","MEAN_ANOMALY":"305.3051","PERIOD":"95.644","MEAN_MOTION":"15.05580471","ECCENTRICITY":"0.00014760","GP_ID":"198244093","ARG_OF_PERICENTER":"54.8075","MEAN_ELEMENT_THEORY":"SGP4","MEAN_MOTION_DDOT":"0.0000000000000","BSTAR":"-0.00008711000000","CLASSIFICATION_TYPE":"U","NORAD_CAT_ID":"46169","MEAN_MOTION_DOT":"-0.00001548","TLE_LINE2":"2 46169  53.0004  41.3424 0001476  54.8075 305.3051 15.05580471 86282","CENTER_NAME":"EARTH"},{"EPHEMERIS_TYPE":"0","COUNTRY_CODE":"US","LAUNCH_DATE":"2020-08-18","SEMIMAJOR_AXIS":"6925.357","EPOCH":"2022-03-08T08:29:17.272032","ELEMENT_SET_NO":"999","OBJECT_ID":"2020-057BG","REV_AT_EPOCH":"8719","PERIAPSIS":"545.740","DECAY_DATE":null,"APOAPSIS":"548.703","OBJECT_NAME":"STARLINK-1633","FILE":"3350976","INCLINATION":"53.0553","TIME_SYSTEM":"UTC","RCS_SIZE":"LARGE","RA_OF_ASC_NODE":"21.2952","REF_FRAME":"TEME","TLE_LINE1":"1 46171U 20057BG  22067.35367213  .00000038  00000-0  21438-4 0  9993","OBJECT_TYPE":"PAYLOAD","SITE":"AFETR","TLE_LINE2":"2 46171  53.0553  21.2952 0002139  49.3552 310.7622 15.06397391 87196","CENTER_NAME":"EARTH","NORAD_CAT_ID":"46171","MEAN_MOTION_DOT":"0.00000038","BSTAR":"0.00002143800000","CLASSIFICATION_TYPE":"U","MEAN_MOTION_DDOT":"0.0000000000000","MEAN_ELEMENT_THEORY":"SGP4","ARG_OF_PERICENTER":"49.3552","ECCENTRICITY":"0.00021390","GP_ID":"198237972","MEAN_MOTION":"15.06397391","PERIOD":"95.592","MEAN_ANOMALY":"310.7622"},{"OBJECT_NAME":"STARLINK-1635","DECAY_DATE":null,"APOAPSIS":"548.472","PERIAPSIS":"546.074","REV_AT_EPOCH":"8722","ELEMENT_SET_NO":"999","OBJECT_ID":"2020-057BH","LAUNCH_DATE":"2020-08-18","SEMIMAJOR_AXIS":"6925.408","EPOCH":"2022-03-08T13:37:09.865056","COUNTRY_CODE":"US","EPHEMERIS_TYPE":"0","PERIOD":"95.593","MEAN_ANOMALY":"304.0859","MEAN_ELEMENT_THEORY":"SGP4","ARG_OF_PERICENTER":"56.0295","ECCENTRICITY":"0.00017310","GP_ID":"198238723","MEAN_MOTION":"15.06380642","MEAN_MOTION_DDOT":"0.0000000000000","CENTER_NAME":"EARTH","TLE_LINE2":"2 46172  53.0566  20.3520 0001731  56.0295 304.0859 15.06380642 87221","NORAD_CAT_ID":"46172","MEAN_MOTION_DOT":"-0.00002315","BSTAR":"-0.00013665000000","CLASSIFICATION_TYPE":"U","OBJECT_TYPE":"PAYLOAD","SITE":"AFETR","REF_FRAME":"TEME","TLE_LINE1":"1 46172U 20057BH  22067.56747529 -.00002315  00000-0 -13665-3 0  9993","TIME_SYSTEM":"UTC","RCS_SIZE":"LARGE","RA_OF_ASC_NODE":"20.3520","FILE":"3350976","INCLINATION":"53.0566"},{"REF_FRAME":"TEME","TLE_LINE1":"1 46173U 20057BJ  22067.61354685 -.00002710  00000-0 -16318-3 0  9994","SITE":"AFETR","OBJECT_TYPE":"PAYLOAD","FILE":"3351330","INCLINATION":"53.0561","TIME_SYSTEM":"UTC","RCS_SIZE":"LARGE","RA_OF_ASC_NODE":"40.1391","MEAN_ELEMENT_THEORY":"SGP4","ARG_OF_PERICENTER":"47.5179","GP_ID":"198272420","ECCENTRICITY":"0.00018070","MEAN_MOTION":"15.06384435","MEAN_ANOMALY":"312.5963","PERIOD":"95.593","CENTER_NAME":"EARTH","TLE_LINE2":"2 46173  53.0561  40.1391 0001807  47.5179 312.5963 15.06384435 85696","MEAN_MOTION_DOT":"-0.00002710","NORAD_CAT_ID":"46173","BSTAR":"-0.00016318000000","CLASSIFICATION_TYPE":"U","MEAN_MOTION_DDOT":"0.0000000000000","LAUNCH_DATE":"2020-08-18","SEMIMAJOR_AXIS":"6925.396","EPOCH":"2022-03-08T14:43:30.447840","ELEMENT_SET_NO":"999","OBJECT_ID":"2020-057BJ","EPHEMERIS_TYPE":"0","COUNTRY_CODE":"US","DECAY_DATE":null,"APOAPSIS":"548.513","OBJECT_NAME":"STARLINK-1640","PERIAPSIS":"546.010","REV_AT_EPOCH":"8569"},{"COUNTRY_CODE":"US","EPHEMERIS_TYPE":"0","ELEMENT_SET_NO":"999","OBJECT_ID":"2020-057BK","LAUNCH_DATE":"2020-08-18","EPOCH":"2022-03-08T14:54:06.744960","SEMIMAJOR_AXIS":"6925.380","PERIAPSIS":"546.064","REV_AT_EPOCH":"8569","OBJECT_NAME":"STARLINK-1641","APOAPSIS":"548.426","DECAY_DATE":null,"RA_OF_ASC_NODE":"40.1016","RCS_SIZE":"LARGE","TIME_SYSTEM":"UTC","INCLINATION":"53.0570","FILE":"3351330","SITE":"AFETR","OBJECT_TYPE":"PAYLOAD","REF_FRAME":"TEME","TLE_LINE1":"1 46174U 20057BK  22067.62091140 -.00000536  00000-0 -17059-4 0  9998","MEAN_MOTION_DDOT":"0.0000000000000","MEAN_MOTION_DOT":"-0.00000536","NORAD_CAT_ID":"46174","CENTER_NAME":"EARTH","TLE_LINE2":"2 46174  53.0570  40.1016 0001705  51.0185 309.0956 15.06389655 85697","CLASSIFICATION_TYPE":"U","BSTAR":"-0.00001705900000","MEAN_ANOMALY":"309.0956","PERIOD":"95.593","ARG_OF_PERICENTER":"51.0185","MEAN_ELEMENT_THEORY":"SGP4","MEAN_MOTION":"15.06389655","ECCENTRICITY":"0.00017050","GP_ID":"198271168"}];
